{
  "type": "FeatureCollection",
  "features": [
    {
      "type": "Feature",
      "properties": {
        "norad_id": 46277,
        "name": "NEMO-HD",
        "group": "resource",
        "lat": 71.99085227315257,
        "lon": -97.9648349787982,
        "alt_km": 437.0251773526443,
        "timestamp": "2025-12-26T03:50:11.745546+00:00",
        "meta_object_name": "NEMO-HD",
        "meta_object_id": "2020-061F",
        "meta_epoch": "2025-12-25T19:34:54.259392",
        "meta_mean_motion": 15.40593759,
        "meta_eccentricity": 0.0001029,
        "meta_inclination": 97.2188,
        "meta_ra_of_asc_node": 58.7477,
        "meta_arg_of_pericenter": 52.724,
        "meta_mean_anomaly": 307.41,
        "meta_ephemeris_type": 0,
        "meta_classification_type": "U",
        "meta_norad_cat_id": 46277,
        "meta_element_set_no": 999,
        "meta_rev_at_epoch": 29525,
        "meta_bstar": 0.00026945,
        "meta_mean_motion_dot": 0.00010883,
        "meta_mean_motion_ddot": 0,
        "tle_line1": "1 46277U 20061F   25359.81590578  .00010883  00000+0  26945-3 0  9990",
        "tle_line2": "2 46277  97.2188  58.7477 0001029  52.7240 307.4100 15.40593759295259"
      },
      "geometry": {
        "type": "Point",
        "coordinates": [
          -97.9648349787982,
          71.99085227315257
        ]
      }
    },
    {
      "type": "Feature",
      "properties": {
        "norad_id": 46984,
        "name": "SENTINEL-6A",
        "group": "resource",
        "lat": 50.74955269258887,
        "lon": 167.40428684578467,
        "alt_km": 1337.2526522846902,
        "timestamp": "2025-12-26T03:50:11.745556+00:00",
        "meta_object_name": "SENTINEL-6A",
        "meta_object_id": "2020-086A",
        "meta_epoch": "2025-12-25T18:09:57.449088",
        "meta_mean_motion": 12.80930775,
        "meta_eccentricity": 0.0007755,
        "meta_inclination": 66.0401,
        "meta_ra_of_asc_node": 135.271,
        "meta_arg_of_pericenter": 269.4393,
        "meta_mean_anomaly": 90.5733,
        "meta_ephemeris_type": 0,
        "meta_classification_type": "U",
        "meta_norad_cat_id": 46984,
        "meta_element_set_no": 999,
        "meta_rev_at_epoch": 23811,
        "meta_bstar": 4.7279e-05,
        "meta_mean_motion_dot": -5e-07,
        "meta_mean_motion_ddot": 0,
        "tle_line1": "1 46984U 20086A   25359.75691492 -.00000050  00000+0  47279-4 0  9992",
        "tle_line2": "2 46984  66.0401 135.2710 0007755 269.4393  90.5733 12.80930775238113"
      },
      "geometry": {
        "type": "Point",
        "coordinates": [
          167.40428684578467,
          50.74955269258887
        ]
      }
    },
    {
      "type": "Feature",
      "properties": {
        "norad_id": 48079,
        "name": "GAOFEN-12 02",
        "group": "resource",
        "lat": -25.00267800822223,
        "lon": 170.34816413868302,
        "alt_km": 634.4018381435226,
        "timestamp": "2025-12-26T03:50:11.745566+00:00",
        "meta_object_name": "GAOFEN-12 02",
        "meta_object_id": "2021-026A",
        "meta_epoch": "2025-12-25T22:02:51.607968",
        "meta_mean_motion": 14.80690331,
        "meta_eccentricity": 0.0003538,
        "meta_inclination": 97.9858,
        "meta_ra_of_asc_node": 353.8619,
        "meta_arg_of_pericenter": 74.6591,
        "meta_mean_anomaly": 285.5012,
        "meta_ephemeris_type": 0,
        "meta_classification_type": "U",
        "meta_norad_cat_id": 48079,
        "meta_element_set_no": 999,
        "meta_rev_at_epoch": 25612,
        "meta_bstar": 7.7658e-05,
        "meta_mean_motion_dot": 5.44e-06,
        "meta_mean_motion_ddot": 0,
        "tle_line1": "1 48079U 21026A   25359.91865287  .00000544  00000+0  77658-4 0  9998",
        "tle_line2": "2 48079  97.9858 353.8619 0003538  74.6591 285.5012 14.80690331256126"
      },
      "geometry": {
        "type": "Point",
        "coordinates": [
          170.34816413868302,
          -25.00267800822223
        ]
      }
    },
    {
      "type": "Feature",
      "properties": {
        "norad_id": 48268,
        "name": "PLEIADES NEO 3",
        "group": "resource",
        "lat": -39.91058123155039,
        "lon": 79.07294585712106,
        "alt_km": 631.161599334846,
        "timestamp": "2025-12-26T03:50:11.745576+00:00",
        "meta_object_name": "PLEIADES NEO 3",
        "meta_object_id": "2021-034A",
        "meta_epoch": "2025-12-25T19:54:52.451136",
        "meta_mean_motion": 14.81672068,
        "meta_eccentricity": 0.0001329,
        "meta_inclination": 97.8942,
        "meta_ra_of_asc_node": 72.083,
        "meta_arg_of_pericenter": 89.1739,
        "meta_mean_anomaly": 270.9626,
        "meta_ephemeris_type": 0,
        "meta_classification_type": "U",
        "meta_norad_cat_id": 48268,
        "meta_element_set_no": 999,
        "meta_rev_at_epoch": 25198,
        "meta_bstar": 2.8077e-05,
        "meta_mean_motion_dot": 1.69e-06,
        "meta_mean_motion_ddot": 0,
        "tle_line1": "1 48268U 21034A   25359.82977374  .00000169  00000+0  28077-4 0  9992",
        "tle_line2": "2 48268  97.8942  72.0830 0001329  89.1739 270.9626 14.81672068251981"
      },
      "geometry": {
        "type": "Point",
        "coordinates": [
          79.07294585712106,
          -39.91058123155039
        ]
      }
    },
    {
      "type": "Feature",
      "properties": {
        "norad_id": 49070,
        "name": "PLEIADES NEO 4",
        "group": "resource",
        "lat": 39.64065906176974,
        "lon": -100.99496267963978,
        "alt_km": 620.4506695809068,
        "timestamp": "2025-12-26T03:50:11.745588+00:00",
        "meta_object_name": "PLEIADES NEO 4",
        "meta_object_id": "2021-073E",
        "meta_epoch": "2025-12-25T20:43:28.795872",
        "meta_mean_motion": 14.81671565,
        "meta_eccentricity": 0.0001355,
        "meta_inclination": 97.8943,
        "meta_ra_of_asc_node": 72.1121,
        "meta_arg_of_pericenter": 88.195,
        "meta_mean_anomaly": 271.9418,
        "meta_ephemeris_type": 0,
        "meta_classification_type": "U",
        "meta_norad_cat_id": 49070,
        "meta_element_set_no": 999,
        "meta_rev_at_epoch": 23570,
        "meta_bstar": -8.1951e-05,
        "meta_mean_motion_dot": -6.97e-06,
        "meta_mean_motion_ddot": 0,
        "tle_line1": "1 49070U 21073E   25359.86352773 -.00000697  00000+0 -81951-4 0  9999",
        "tle_line2": "2 49070  97.8943  72.1121 0001355  88.1950 271.9418 14.81671565235704"
      },
      "geometry": {
        "type": "Point",
        "coordinates": [
          -100.99496267963978,
          39.64065906176974
        ]
      }
    },
    {
      "type": "Feature",
      "properties": {
        "norad_id": 49260,
        "name": "LANDSAT 9",
        "group": "resource",
        "lat": 50.75160961362143,
        "lon": 57.89957085978841,
        "alt_km": 697.2451366285177,
        "timestamp": "2025-12-26T03:50:11.745599+00:00",
        "meta_object_name": "LANDSAT 9",
        "meta_object_id": "2021-088A",
        "meta_epoch": "2025-12-25T19:21:38.918880",
        "meta_mean_motion": 14.57111045,
        "meta_eccentricity": 0.0001112,
        "meta_inclination": 98.2077,
        "meta_ra_of_asc_node": 67.7273,
        "meta_arg_of_pericenter": 93.391,
        "meta_mean_anomaly": 266.7416,
        "meta_ephemeris_type": 0,
        "meta_classification_type": "U",
        "meta_norad_cat_id": 49260,
        "meta_element_set_no": 999,
        "meta_rev_at_epoch": 22575,
        "meta_bstar": 0.00011045,
        "meta_mean_motion_dot": 4.52e-06,
        "meta_mean_motion_ddot": 0,
        "tle_line1": "1 49260U 21088A   25359.80670045  .00000452  00000+0  11045-3 0  9998",
        "tle_line2": "2 49260  98.2077  67.7273 0001112  93.3910 266.7416 14.57111045225750"
      },
      "geometry": {
        "type": "Point",
        "coordinates": [
          57.89957085978841,
          50.75160961362143
        ]
      }
    },
    {
      "type": "Feature",
      "properties": {
        "norad_id": 51444,
        "name": "CSG-2",
        "group": "resource",
        "lat": -15.60214920800533,
        "lon": -0.9360662157457589,
        "alt_km": 627.7598063872392,
        "timestamp": "2025-12-26T03:50:11.745610+00:00",
        "meta_object_name": "CSG-2",
        "meta_object_id": "2022-008A",
        "meta_epoch": "2025-12-25T20:28:32.820960",
        "meta_mean_motion": 14.82156231,
        "meta_eccentricity": 0.0001442,
        "meta_inclination": 97.8805,
        "meta_ra_of_asc_node": 180.9786,
        "meta_arg_of_pericenter": 81.7762,
        "meta_mean_anomaly": 278.3614,
        "meta_ephemeris_type": 0,
        "meta_classification_type": "U",
        "meta_norad_cat_id": 51444,
        "meta_element_set_no": 999,
        "meta_rev_at_epoch": 21091,
        "meta_bstar": 6.9549e-05,
        "meta_mean_motion_dot": 5.02e-06,
        "meta_mean_motion_ddot": 0,
        "tle_line1": "1 51444U 22008A   25359.85315765  .00000502  00000+0  69549-4 0  9997",
        "tle_line2": "2 51444  97.8805 180.9786 0001442  81.7762 278.3614 14.82156231210915"
      },
      "geometry": {
        "type": "Point",
        "coordinates": [
          -0.9360662157457589,
          -15.60214920800533
        ]
      }
    }
  ]
}